[{"OBJECT_NAME":"YAOGAN-30 06B","OBJECT_ID":"2019-045B","EPOCH":"2026-03-09T20:57:59.211936","MEAN_MOTION":15.02091105,"ECCENTRICITY":0.00094792,"INCLINATION":34.9914,"RA_OF_ASC_NODE":214.7206,"ARG_OF_PERICENTER":283.6936,"MEAN_ANOMALY":76.2717,"EPHEMERIS_TYPE":0,"CLASSIFICATION_TYPE":"U","NORAD_CAT_ID":44450,"ELEMENT_SET_NO":999,"REV_AT_EPOCH":36171,"BSTAR":0.00031633807,"MEAN_MOTION_DOT":4.217e-5,"MEAN_MOTION_DDOT":0},{"OBJECT_NAME":"STARLINK-4630","OBJECT_ID":"2022-105AJ","EPOCH":"2026-03-09T22:50:44.378592","MEAN_MOTION":15.05647203,"ECCENTRICITY":0.00023198,"INCLINATION":97.6031,"RA_OF_ASC_NODE":311.4726,"ARG_OF_PERICENTER":85.4465,"MEAN_ANOMALY":274.7027,"EPHEMERIS_TYPE":0,"CLASSIFICATION_TYPE":"U","NORAD_CAT_ID":53680,"ELEMENT_SET_NO":999,"REV_AT_EPOCH":19334,"BSTAR":6.070959e-5,"MEAN_MOTION_DOT":8.15e-6,"MEAN_MOTION_DDOT":0}]
